LAKE NAME,Code,Latitude,Longitude,Distance,Latitude_DD,Longitude_DD
0_Chillukala_Kunta_lake,A1,"78°19'15.604""E","17°26'43.771""N",10.9,17.44549,78.321
0_Chillukala_Kunta_lake,A2,"78°19'15.326""E","17°26'44.005""N",9.72,17.44556,78.32092
0_Chillukala_Kunta_lake,A3,"78°19'15.496""E","17°26'44.279""N",9.72,17.44563,78.32097
0_Chillukala_Kunta_lake,A4,"78°19'15.794""E","17°26'44.581""N",12.81,17.44572,78.32105
0_Chillukala_Kunta_lake,A5,"78°19'15.910""E","17°26'45.017""N",17.54,17.44584,78.32109
0_Chillukala_Kunta_lake,A6,"78°19'16.068""E","17°26'45.913""N",27.77,17.44609,78.32113
0_Chillukala_Kunta_lake,A7,"78°19'15.744""E","17°26'46.748""N",10.82,17.44632,78.32104
0_Chillukala_Kunta_lake,A8,"78°19'15.546""E","17°26'45.733""N",5.87,17.44604,78.32098
0_Chillukala_Kunta_lake,A9,"78°19'15.496""E","17°26'45.791""N",6.32,17.44605,78.32097
0_Chillukala_Kunta_lake,A10,"78°19'15.313""E","17°26'46.403""N",21.94,17.44622,78.32092
0_Chillukala_Kunta_lake,A11,"78°19'15.206""E","17°26'47.256""N",16.63,17.44646,78.32089
0_Chillukala_Kunta_lake,A12,"78°19'14.689""E","17°26'47.461""N",7.43,17.44652,78.32075
0_Chillukala_Kunta_lake,A13,"78°19'14.318""E","17°26'48.664""N",38.52,17.44685,78.32064
0_Chillukala_Kunta_lake,A14,"78°19'14.351""E","17°26'49.549""N",27.35,17.4471,78.32065
0_Chillukala_Kunta_lake,A15,"78°19'13.152""E","17°26'51.288""N",64.17,17.44758,78.32032
0_Chillukala_Kunta_lake,A16,"78°19'12.421""E","17°26'50.629""N",29.65,17.4474,78.32012
0_Chillukala_Kunta_lake,A17,"78°19'11.273""E","17°26'51.018""N",35.95,17.4475,78.3198
0_Chillukala_Kunta_lake,A18,"78°19'10.654""E","17°26'52.231""N",41.57,17.44784,78.31963
0_Chillukala_Kunta_lake,A19,"78°19'09.494""E","17°26'52.181""N",34.29,17.44783,78.3193
0_Chillukala_Kunta_lake,A20,"78°19'09.595""E","17°26'51.389""N",24.61,17.44761,78.31933
0_Chillukala_Kunta_lake,A21,"78°19'09.174""E","17°26'50.194""N",36.88,17.44728,78.31922
0_Chillukala_Kunta_lake,A22,"78°19'09.354""E","17°26'49.884""N",14.34,17.44719,78.31926
0_Chillukala_Kunta_lake,A23,"78°19'09.115""E","17°26'47.598""N",73.75,17.44656,78.3192
0_Chillukala_Kunta_lake,A24,"78°19'10.694""E","17°26'46.561""N",36.13,17.44627,78.31964
0_Chillukala_Kunta_lake,A25,"78°19'09.988""E","17°26'45.928""N",28.49,17.44609,78.31944
0_Chillukala_Kunta_lake,A26,"78°19'10.135""E","17°26'45.294""N",20.0,17.44592,78.31948
0_Chillukala_Kunta_lake,A27,"78°19'10.297""E","17°26'44.588""N",22.22,17.44572,78.31953
0_Chillukala_Kunta_lake,A28,"78°19'10.925""E","17°26'43.051""N",21.53,17.44529,78.3197
0_Chillukala_Kunta_lake,A29,"78°19'09.667""E","17°26'43.382""N",22.22,17.44538,78.31935
0_Chillukala_Kunta_lake,A30,"78°19'09.176""E","17°26'42.504""N",27.11,17.44514,78.31922
0_Chillukala_Kunta_lake,A31,"78°19'08.432""E","17°26'42.076""N",15.85,17.44502,78.31901
0_Chillukala_Kunta_lake,A32,"78°19'10.891""E","17°26'42.367""N",18.57,17.4451,78.31969
0_Chillukala_Kunta_lake,A33,"78°19'11.305""E","17°26'42.367""N",12.15,17.4451,78.31981
Kangula_Kunta,A1,"17°47'17.51""N","78°47'41.553""E",8.66,17.7882,78.79488
Kangula_Kunta,A2,"17°47'17.41""N","78°47'41.82""E",8.46,17.78817,78.79495
Kangula_Kunta,A3,"17°47'17.631""N","78°47'41.875""E",12.89,17.78823,78.79497
Kangula_Kunta,A4,"17°47'18.025""N","78°47'41.9""E",12.67,17.78834,78.79497
Kangula_Kunta,A5,"17°47'18.583""N","78°47'42.344""E",21.5,17.7885,78.7951
Kangula_Kunta,A6,"17°47'18.618""N","78°47'42.362""E",11.96,17.7885,78.7951
Kangula_Kunta,A7,"17°47'18.648""N","78°47'43.586""E",8.28,17.78851,78.79544
Kangula_Kunta,A8,"17°47'19.253""N","78°47'43.88""E",9.59,17.78868,78.79552
Kangula_Kunta,A9,"17°47'19.433""N","78°47'43.558""E",15.01,17.78873,78.79543
Kangula_Kunta,A10,"17°47'19.489""N","78°47'43.36""E",7.73,17.78875,78.79538
Kangula_Kunta,A11,"17°47'20.046""N","78°47'42.358""E",18.88,17.7889,78.7951
Kangula_Kunta,A12,"17°47'20.385""N","78°47'42.394""E",18.83,17.789,78.79511
Kangula_Kunta,A13,"17°47'20.798""N","78°47'42.362""E",13.65,17.78911,78.7951
Kangula_Kunta,A14,"17°47'21.32""N","78°47'42.33""E",12.36,17.78926,78.79509
Kangula_Kunta,A15,"17°47'21.833""N","78°47'42.368""E",17.61,17.7894,78.7951
Kangula_Kunta,A16,"17°47'22.049""N","78°47'43.027""E",21.86,17.78946,78.79529
Kangula_Kunta,A17,"17°47'22.350""N","78°47'43.33""E",15.7,17.78954,78.79537
Kangula_Kunta,A18,"17°47'23.069""N","78°47'43.462""E",8.83,17.78974,78.79541
Kangula_Kunta,A19,"17°47'23.235""N","78°47'43.397""E",19.83,17.78979,78.79539
Kangula_Kunta,A20,"17°47'23.944""N","78°47'43.319""E",21.94,17.78998,78.79537
Kangula_Kunta,A21,"17°47'24.253""N","78°47'43.804""E",17.2,17.79007,78.7955
Kangula_Kunta,A22,"17°47'24.373""N","78°47'43.886""E",5.0,17.7901,78.79552
Kangula_Kunta,A23,"17°47'24.834""N","78°47'44.004""E",15.04,17.79023,78.79556
Kangula_Kunta,A24,"17°47'24.972""N","78°47'44.519""E",10.43,17.79027,78.7957
Kangula_Kunta,A25,"17°47'25.151""N","78°47'44.516""E",12.81,17.79032,78.7957
Kangula_Kunta,A26,"17°47'25.303""N","78°47'44.875""E",8.83,17.79036,78.7958
Kangula_Kunta,A27,"17°47'25.759""N","78°47'44.776""E",14.97,17.79049,78.79577
Kangula_Kunta,A28,"17°47'25.829""N","78°47'45.226""E",10.57,17.79051,78.7959
Kangula_Kunta,A29,"17°47'25.481""N","78°47'45.286""E",4.88,17.79041,78.79591
Kangula_Kunta,A30,"17°47'25.178""N","78°47'45.211""E",9.57,17.79033,78.79589
Kangula_Kunta,A31,"17°47'24.154""N","78°47'45.216""E",16.65,17.79004,78.79589
Kangula_Kunta,A32,"17°47'23.709""N","78°47'45.156""E",4.06,17.78992,78.79588
Kangula_Kunta,A33,"17°47'24.009""N","78°47'45.162""E",6.0,17.79,78.79588
Kangula_Kunta,A34,"17°47'24.352""N","78°47'45.806""E",7.41,17.7901,78.79606
Kangula_Kunta,A35,"17°47'24.382""N","78°47'46.292""E",14.0,17.79011,78.79619
Kangula_Kunta,A36,"17°47'23.877""N","78°47'46.562""E",14.05,17.78997,78.79627
Kangula_Kunta,A37,"17°47'23.669""N","78°47'46.714""E",6.57,17.78991,78.79631
Kangula_Kunta,A38,"17°47'23.669""N","78°47'46.764""E",3.67,17.78991,78.79632
Kangula_Kunta,A39,"17°47'23.060""N","78°47'47.834""E",17.47,17.78974,78.79662
Kangula_Kunta,A40,"17°47'22.709""N","78°47'47.63""E",25.7,17.78964,78.79656
Kangula_Kunta,A41,"17°47'22.497""N","78°47'47.282""E",6.0,17.78958,78.79647
Kangula_Kunta,A42,"17°47'22.35""N","78°47'49.384""E",28.26,17.78954,78.79705
Kangula_Kunta,A43,"17°47'22.35""N","78°47'49.41""E",24.26,17.78954,78.79706
Kangula_Kunta,A44,"17°47'22.35""N","78°47'50.442""E",23.73,17.78954,78.79735
Kangula_Kunta,A45,"17°47'20.153""N","78°47'50.486""E",25.74,17.78893,78.79736
Kangula_Kunta,A46,"17°47'20.25""N","78°47'51.81""E",22.49,17.78896,78.79772
Kangula_Kunta,A47,"17°47'20.88""N","78°47'51.684""E",16.4,17.78913,78.79769
Kangula_Kunta,A48,"17°47'18.791""N","78°47'51.984""E",23.33,17.78855,78.79777
Peddin_Cheruvu,A1,"78°13'35.694""E","17°5'34.080""N",0.0,17.0928,78.22658
Peddin_Cheruvu,A2,"78°13'36.387""E","17°5'33.273""N",32.2,17.09258,78.22677
Peddin_Cheruvu,A3,"78°13'37.063""E","17°5'32.682""N",27.03,17.09241,78.22696
Peddin_Cheruvu,A4,"78°13'37.558""E","17°5'32.352""N",17.8,17.09232,78.2271
Peddin_Cheruvu,A5,"78°13'38.052""E","17°5'32.023""N",17.8,17.09223,78.22724
Peddin_Cheruvu,A6,"78°13'37.988""E","17°5'31.108""N",28.19,17.09197,78.22722
Peddin_Cheruvu,A7,"78°13'38.170""E","17°5'29.993""N",34.73,17.09166,78.22727
Peddin_Cheruvu,A8,"78°13'38.944""E","17°5'29.574""N",26.27,17.09155,78.22748
Peddin_Cheruvu,A9,"78°13'40.238""E","17°5'29.319""N",39.08,17.09148,78.22784
Peddin_Cheruvu,A10,"78°13'41.291""E","17°5'29.038""N",32.35,17.0914,78.22814
Peddin_Cheruvu,A11,"78°13'42.481""E","17°5'29.090""N",35.24,17.09141,78.22847
Peddin_Cheruvu,A12,"78°13'43.768""E","17°5'29.034""N",38.1,17.0914,78.22882
Peddin_Cheruvu,A13,"78°13'44.845""E","17°5'28.915""N",32.08,17.09137,78.22912
Peddin_Cheruvu,A14,"78°13'45.339""E","17°5'29.259""N",18.06,17.09146,78.22926
Peddin_Cheruvu,A15,"78°13'45.831""E","17°5'29.737""N",20.68,17.09159,78.2294
Peddin_Cheruvu,A16,"78°13'46.207""E","17°5'30.361""N",22.17,17.09177,78.2295
Peddin_Cheruvu,A17,"78°13'46.582""E","17°5'30.985""N",22.17,17.09194,78.22961
Peddin_Cheruvu,A18,"78°13'46.558""E","17°5'31.512""N",16.23,17.09209,78.2296
Peddin_Cheruvu,A19,"78°13'46.009""E","17°5'32.031""N",16.58,17.09223,78.22945
Peddin_Cheruvu,A20,"78°13'47.068""E","17°5'32.700""N",23.17,17.09242,78.22974
Peddin_Cheruvu,A21,"78°13'47.366""E","17°5'33.225""N",17.19,17.09256,78.22982
Peddin_Cheruvu,A22,"78°13'47.542""E","17°5'33.810""N",19.73,17.09273,78.22987
Peddin_Cheruvu,A23,"78°13'47.614""E","17°5'34.273""N",14.42,17.09285,78.22989
Peddin_Cheruvu,A24,"78°13'47.654""E","17°5'35.120""N",26.07,17.09309,78.2299
Peddin_Cheruvu,A25,"78°13'47.854""E","17°5'35.817""N",22.26,17.09328,78.22996
Peddin_Cheruvu,A26,"78°13'47.930""E","17°5'36.866""N",32.33,17.09357,78.22998
Peddin_Cheruvu,A27,"78°13'48.281""E","17°5'37.989""N",36.07,17.09389,78.23008
Peddin_Cheruvu,A28,"78°13'48.621""E","17°5'38.745""N",25.41,17.0941,78.23017
Peddin_Cheruvu,A29,"78°13'49.018""E","17°5'39.402""N",23.3,17.09428,78.23028
Peddin_Cheruvu,A30,"78°13'49.060""E","17°5'40.793""N",42.78,17.09466,78.23029
Peddin_Cheruvu,A31,"78°13'48.799""E","17°5'42.139""N",26.73,17.09504,78.23022
Peddin_Cheruvu,A32,"78°13'48.640""E","17°5'43.205""N",31.89,17.09533,78.23018
Peddin_Cheruvu,A33,"78°13'48.289""E","17°5'44.427""N",38.97,17.09567,78.23008
Soora_Samudram,A1,"78°13'41.316""E","17°4'15.155""N",0.0,17.07088,78.22814
Soora_Samudram,A2,"78°13'40.880""E","17°4'14.213""N",31.74,17.07061,78.22802
Soora_Samudram,A3,"78°13'40.537""E","17°4'13.547""N",22.85,17.07043,78.22793
Soora_Samudram,A4,"78°13'39.082""E","17°4'13.039""N",22.85,17.07029,78.22752
Soora_Samudram,A5,"78°13'40.082""E","17°4'12.710""N",33.55,17.0702,78.2278
Soora_Samudram,A6,"78°13'38.291""E","17°4'12.125""N",27.65,17.07003,78.2273
Soora_Samudram,A7,"78°13'37.581""E","17°4'11.540""N",27.65,17.06987,78.22711
Soora_Samudram,A8,"78°13'37.026""E","17°4'10.882""N",26.06,17.06969,78.22695
Soora_Samudram,A9,"78°13'36.472""E","17°4'10.224""N",26.06,17.06951,78.2268
Soora_Samudram,A10,"78°13'36.060""E","17°4'9.805""N",26.65,17.06939,78.22668
Soora_Samudram,A11,"78°13'34.376""E","17°4'9.387""N",33.58,17.06927,78.22622
Soora_Samudram,A12,"78°13'32.888""E","17°4'9.676""N",44.23,17.06935,78.2258
Soora_Samudram,A13,"78°13'31.401""E","17°4'9.676""N",44.23,17.06935,78.22539
Soora_Samudram,A14,"78°13'30.271""E","17°4'10.274""N",33.55,17.06952,78.22508
Soora_Samudram,A15,"78°13'29.140""E","17°4'10.872""N",38.17,17.06969,78.22476
Soora_Samudram,A16,"78°13'28.541""E","17°4'12.502""N",38.17,17.07014,78.22459
Soora_Samudram,A17,"78°13'28.714""E","17°4'13.074""N",18.33,17.0703,78.22464
Soora_Samudram,A18,"78°13'28.810""E","17°4'13.565""N",15.37,17.07043,78.22467
Soora_Samudram,A19,"78°13'28.395""E","17°4'13.944""N",35.1,17.07054,78.22455
Soora_Samudram,A20,"78°13'28.803""E","17°4'15.911""N",41.1,17.07109,78.22467
Soora_Samudram,A21,"78°13'29.226""E","17°4'17.088""N",38.31,17.07141,78.22478
Soora_Samudram,A22,"78°13'29.697""E","17°4'17.873""N",27.85,17.07163,78.22492
Jannamma_Kunta,A1,"17°4'34.655""N","78°11'51.112""E",0.0,17.07629,78.19753
Jannamma_Kunta,A2,"17°4'34.414""N","78°11'50.626""E",16.195,17.07623,78.1974
Jannamma_Kunta,A3,"17°4'33.506""N","78°11'51.349""E",35.183,17.07597,78.1976
Jannamma_Kunta,A4,"17°4'32.07""N","78°11'51.806""E",46.283,17.07558,78.19772
Jannamma_Kunta,A5,"17°4'30.436""N","78°11'52.08""E",50.836,17.07512,78.1978
Jannamma_Kunta,A6,"17°4'28.841""N","78°11'52.649""E",51.915,17.07468,78.19796
Jannamma_Kunta,A7,"17°4'25.752""N","78°11'52.991""E",95.518,17.07382,78.19805
Jannamma_Kunta,A8,"17°4'25.252""N","78°11'53.758""E",27.429,17.07368,78.19827
Jannamma_Kunta,A9,"17°4'23.912""N","78°11'54.953""E",54.269,17.07331,78.1986
Jannamma_Kunta,A10,"17°4'24.276""N","78°11'56.116""E",36.207,17.07341,78.19892
Jannamma_Kunta,A11,"17°4'24.442""N","78°11'56.843""E",22.099,17.07346,78.19912
Jannamma_Kunta,A12,"17°4'24.798""N","78°11'57.178""E",14.807,17.07356,78.19922
Jannamma_Kunta,A13,"17°4'27.296""N","78°11'57.433""E",77.23,17.07425,78.19929
Jannamma_Kunta,A14,"17°4'28.999""N","78°11'58.823""E",66.661,17.07472,78.19967
Jannamma_Kunta,A15,"17°4'29.173""N","78°11'59.374""E",38.071,17.07477,78.19983
Jannamma_Kunta,A16,"17°4'30.986""N","78°11'59.266""E",37.892,17.07527,78.1998
Jannamma_Kunta,A17,"17°4'32.459""N","78°11'59.863""E",48.647,17.07568,78.19996
Jannamma_Kunta,A18,"17°4'33.128""N","78°12'0.529""E",28.584,17.07587,78.20015
Jannamma_Kunta,A19,"17°4'34""N","78°12'0.745""E",27.504,17.07611,78.20021
Jannamma_Kunta,A20,"17°4'35.173""N","78°12'0.86""E",36.306,17.07644,78.20024
Jannamma_Kunta,A21,"17°4'35.303""N","78°12'0.59""E",8.886,17.07647,78.20016
Komati_Kunta,A1,"17°4'48.803""N","78°7'21.688""E",0.0,17.08022,78.12269
Komati_Kunta,A2,"17°4'49.148""N","78°7'21.162""E",18.816,17.08032,78.12254
Komati_Kunta,A3,"17°4'50.023""N","78°7'21.997""E",36.499,17.08056,78.12278
Komati_Kunta,A4,"17°4'50.038""N","78°7'22.757""E",22.492,17.08057,78.12299
Komati_Kunta,A5,"17°4'49.93""N","78°7'23.401""E",19.354,17.08054,78.12317
Komati_Kunta,A6,"17°4'49.22""N","78°7'24.121""E",30.535,17.08034,78.12337
Komati_Kunta,A7,"17°4'48.115""N","78°7'24.017""E",34.116,17.08003,78.12334
Komati_Kunta,A8,"17°4'47.284""N","78°7'24.499""E",29.317,17.0798,78.12347
Komati_Kunta,A9,"17°4'46.765""N","78°7'24.985""E",21.385,17.07966,78.12361
Komati_Kunta,A10,"17°4'46.024""N","78°7'25.129""E",23.242,17.07945,78.12365
Komati_Kunta,A11,"17°4'45.703""N","78°7'25.72""E",20.046,17.07936,78.12381
Komati_Kunta,A12,"17°4'44.67""N","78°7'25.442""E",32.836,17.07908,78.12373
Komati_Kunta,A13,"17°4'43.504""N","78°7'25.651""E",36.36,17.07875,78.12379
Komati_Kunta,A14,"17°4'42.56""N","78°7'25.309""E",30.741,17.07849,78.1237
Komati_Kunta,A15,"17°4'41.696""N","78°7'24.283""E",40.329,17.07825,78.12341
Komati_Kunta,A16,"17°4'41.434""N","78°7'23.642""E",20.601,17.07818,78.12323
Komati_Kunta,A17,"17°4'41.06""N","78°7'22.361""E",52.047,17.07807,78.12288
Komati_Kunta,A18,"17°4'39.331""N","78°7'22.472""E",22.798,17.07759,78.12291
Komati_Kunta,A19,"17°4'39.382""N","78°7'21.925""E",16.215,17.07761,78.12276
Pulicherla_Kunta,A1,"17°3'49.885""N","78°8'12.89""E",0.0,17.06386,78.13691
Pulicherla_Kunta,A2,"17°3'49.676""N","78°8'13.567""E",21.108,17.0638,78.1371
Pulicherla_Kunta,A3,"17°3'50.598""N","78°8'14.784""E",45.787,17.06406,78.13744
Pulicherla_Kunta,A4,"17°3'51.026""N","78°8'17.002""E",66.946,17.06417,78.13806
Pulicherla_Kunta,A5,"17°3'52.337""N","78°8'20.731""E",17.469,17.06454,78.13909
Pulicherla_Kunta,A6,"17°3'53.914""N","78°8'21.329""E",51.628,17.06498,78.13926
Pulicherla_Kunta,A7,"17°3'55.588""N","78°8'21.997""E",52.824,17.06544,78.13944
Pulicherla_Kunta,A8,"17°3'57.499""N","78°8'20.256""E",62.161,17.06597,78.13896
Pulicherla_Kunta,A9,"17°3'59.096""N","78°8'19.59""E",76.666,17.06642,78.13878
Pulicherla_Kunta,A10,"17°4'1.204""N","78°8'18.841""E",45.583,17.067,78.13857
Pulicherla_Kunta,A11,"17°4'2.392""N","78°8'18.197""E",60.084,17.06733,78.13839
Pulicherla_Kunta,A12,"17°4'2.392""N","78°8'18.229""E",0.0,17.06733,78.1384
Pulicherla_Kunta,A13,"17°4'4.372""N","78°8'17.441""E",65.193,17.06788,78.13818
Pulicherla_Kunta,A14,"17°4'4.541""N","78°8'12.559""E",144.561,17.06793,78.13682
Pulicherla_Kunta,A15,"17°4'3.67""N","78°8'8.804""E",114.24,17.06769,78.13578
Poolkam_Kunta,A1,"17°4'12.475""N","78°9'14.386""E",0.0,17.07013,78.154
Poolkam_Kunta,A2,"17°4'12.86""N","78°9'14.99""E",21.502,17.07024,78.15416
Poolkam_Kunta,A3,"17°4'13.469""N","78°9'16.643""E",52.316,17.07041,78.15462
Poolkam_Kunta,A4,"17°4'13.969""N","78°9'17.24""E",23.504,17.07055,78.15479
Poolkam_Kunta,A5,"17°4'13.969""N","78°9'17.896""E",19.404,17.07055,78.15497
Poolkam_Kunta,A6,"17°4'13.562""N","78°9'18.716""E",27.207,17.07043,78.1552
Poolkam_Kunta,A7,"17°4'13.141""N","78°9'19.055""E",16.396,17.07032,78.15529
Poolkam_Kunta,A8,"17°4'12.832""N","78°9'19.663""E",20.436,17.07023,78.15546
Poolkam_Kunta,A9,"17°4'12.695""N","78°9'19.75""E",4.892,17.07019,78.15549
Chama_Kunta,A1,"17°4'20.737""N","78°9'15.822""E",0.0,17.07243,78.15439
Chama_Kunta,A2,"17°4'20.892""N","78°9'15.966""E",6.372,17.07247,78.15444
Chama_Kunta,A3,"17°4'21.086""N","78°9'16.434""E",15.114,17.07252,78.15457
Chama_Kunta,A4,"17°4'21.126""N","78°9'17.359""E",27.354,17.07253,78.15482
Chama_Kunta,A5,"17°4'21.169""N","78°9'18.36""E",29.651,17.07255,78.1551
Chama_Kunta,A6,"17°4'21.007""N","78°9'18.997""E",19.494,17.0725,78.15528
Chama_Kunta,A7,"17°4'21.076""N","78°9'18.84""E",25.013,17.07252,78.15523
Chama_Kunta,A8,"17°4'21.252""N","78°9'20.405""E",17.542,17.07257,78.15567
Chama_Kunta,A9,"17°4'20.702""N","78°9'20.873""E",21.754,17.07242,78.1558
Chama_Kunta,A10,"17°4'20.686""N","78°9'21.092""E",6.716,17.07241,78.15586
Chama_Kunta,A11,"17°4'19.965""N","78°9'21.085""E",21.728,17.07221,78.15586
Chama_Kunta,A12,"17°4'19.571""N","78°9'20.675""E",16.949,17.0721,78.15574
Masoni_Kunta,A1,"17°5'4.24""N","78°9'39.053""E",0.0,17.08451,78.16085
Masoni_Kunta,A2,"17°5'4.924""N","78°9'39.496""E",24.744,17.0847,78.16097
Masoni_Kunta,A3,"17°5'5.453""N","78°9'40.025""E",22.588,17.08485,78.16112
Masoni_Kunta,A4,"17°5'5.806""N","78°9'41.306""E",39.499,17.08495,78.16147
Masoni_Kunta,A5,"17°5'6.151""N","78°9'42.538""E",37.931,17.08504,78.16182
Masoni_Kunta,A6,"17°5'6.486""N","78°9'43.47""E",29.407,17.08514,78.16208
Masoni_Kunta,A7,"17°5'6.612""N","78°9'43.834""E",11.469,17.08517,78.16218
Masoni_Kunta,A8,"17°5'6.608""N","78°9'44.651""E",24.224,17.08517,78.1624
Kunta_Shikham,A1,"78°10'15.6""E","17°4'44.4""N",0.0,17.079,78.171
Kunta_Shikham,A2,"78°10'15.6""E","17°4'44.4""N",33.76,17.079,78.171
Kunta_Shikham,A3,"78°10'12""E","17°4'44.4""N",36.778,17.079,78.17
Kunta_Shikham,A4,"78°10'12""E","17°4'44.4""N",36.656,17.079,78.17
Kunta_Shikham,A5,"78°10'12""E","17°4'40.8""N",32.445,17.078,78.17
Kunta_Shikham,A6,"78°10'12""E","17°4'40.8""N",13.93,17.078,78.17
Kunta_Shikham,A7,"78°10'12""E","17°4'40.8""N",32.456,17.078,78.17
Kunta_Shikham,A8,"78°10'8.4""E","17°4'40.8""N",75.956,17.078,78.169
Kunta_Shikham,A9,"78°10'8.4""E","17°4'40.8""N",20.827,17.078,78.169
Kunta_Shikham,A10,"78°10'8.4""E","17°4'40.8""N",66.861,17.078,78.169
Kunta_Shikham,A11,"78°10'4.8""E","17°4'44.4""N",54.2,17.079,78.168
Kunta_Shikham,A12,"78°10'4.8""E","17°4'44.4""N",23.254,17.079,78.168
Kunta_Shikham,A13,"78°10'4.8""E","17°4'44.4""N",18.639,17.079,78.168
Mala_Kunta,A1,"17°4'36.419""N","78°9'45.81""E",0.0,17.07678,78.16272
Mala_Kunta,A2,"17°4'36.26""N","78°9'45.634""E",7.159,17.07674,78.16268
Mala_Kunta,A3,"17°4'36.433""N","78°9'45.004""E",19.33,17.07679,78.1625
Mala_Kunta,A4,"17°4'36.811""N","78°9'44.842""E",12.657,17.07689,78.16246
Mala_Kunta,A5,"17°4'36.646""N","78°9'43.83""E",30.297,17.07685,78.16218
Mala_Kunta,A6,"17°4'36.847""N","78°9'43.276""E",17.576,17.0769,78.16202
Mala_Kunta,A7,"17°4'37.006""N","78°9'42.631""E",19.656,17.07695,78.16184
Mala_Kunta,A8,"17°4'36.761""N","78°9'41.371""E",38.036,17.07688,78.16149
Mala_Kunta,A9,"17°4'37.286""N","78°9'40.975""E",19.936,17.07702,78.16138
Gaddabhavi_Kunta,A1,"17°5'20.006""N","78°10'12.058""E",0.0,17.08889,78.17002
Gaddabhavi_Kunta,A2,"17°5'20.119""N","78°10'11.838""E",7.36,17.08892,78.16996
Gaddabhavi_Kunta,A3,"17°5'20.473""N","78°10'11.773""E",11.07,17.08902,78.16994
Gaddabhavi_Kunta,A4,"17°5'20.959""N","78°10'11.566""E",16.07,17.08916,78.16988
Gaddabhavi_Kunta,A5,"17°5'21.489""N","78°10'11.492""E",16.64,17.0893,78.16986
Gaddabhavi_Kunta,A6,"17°5'21.714""N","78°10'11.543""E",7.08,17.08936,78.16987
Gaddabhavi_Kunta,A7,"17°5'22.678""N","78°10'11.607""E",29.74,17.08963,78.16989
Gaddabhavi_Kunta,A8,"17°5'22.677""N","78°10'11.349""E",8.93,17.08963,78.16982
Gaddabhavi_Kunta,A9,"17°5'23.237""N","78°10'11.192""E",17.84,17.08979,78.16978
Gaddabhavi_Kunta,A10,"17°5'23.156""N","78°10'11.692""E",14.98,17.08977,78.16991
Gaddabhavi_Kunta,A11,"17°5'23.787""N","78°10'12.207""E",24.66,17.08994,78.17006
Gaddabhavi_Kunta,A12,"17°5'23.269""N","78°10'12.722""E",22.04,17.0898,78.1702
Gaddabhavi_Kunta,A13,"17°5'23.485""N","78°10'16.516""E",112.47,17.08986,78.17125
Gaddabhavi_Kunta,A14,"17°5'22.630""N","78°10'15.347""E",43.47,17.08962,78.17093
Siddoni_Kunta,A1,"17°5'34.811""N","78°10'46.816""E",0.0,17.093,78.17967
Siddoni_Kunta,A2,"17°5'34.811""N","78°10'47.122""E",9.065,17.093,78.17976
Siddoni_Kunta,A3,"17°5'34.109""N","78°10'46.873""E",22.778,17.09281,78.17969
Siddoni_Kunta,A4,"17°5'33.1""N","78°10'46.877""E",24.592,17.09253,78.17969
Siddoni_Kunta,A5,"17°5'32.158""N","78°10'47.41""E",38.809,17.09227,78.17984
Siddoni_Kunta,A6,"17°5'30.998""N","78°10'46.524""E",44.244,17.09194,78.17959
Siddoni_Kunta,A7,"17°5'29.609""N","78°10'46.895""E",44.079,17.09156,78.17969
Siddoni_Kunta,A8,"17°5'28.421""N","78°10'45.595""E",53.829,17.09123,78.17933
Siddoni_Kunta,A9,"17°5'27.311""N","78°10'44.875""E",62.799,17.09092,78.17913
Siddoni_Kunta,A10,"17°5'29.692""N","78°10'42.665""E",56.002,17.09158,78.17852
Siddoni_Kunta,A11,"17°5'30.919""N","78°10'42.038""E",42.055,17.09192,78.17834
Siddoni_Kunta,A12,"17°5'31.88""N","78°10'42.204""E",29.907,17.09219,78.17839
Hanuman_Kunta,A1,"78°11'49.722""E","17°5'56.907""N",0.0,17.09914,78.19715
Hanuman_Kunta,A2,"78°11'49.568""E","17°5'57.878""N",30.22,17.09941,78.1971
Hanuman_Kunta,A3,"78°11'48.499""E","17°5'58.170""N",32.88,17.09949,78.19681
Hanuman_Kunta,A4,"78°11'48.437""E","17°5'58.292""N",4.17,17.09953,78.19679
Hanuman_Kunta,A5,"78°11'47.450""E","17°5'58.416""N",29.46,17.09956,78.19651
Hanuman_Kunta,A6,"78°11'46.463""E","17°5'59.229""N",38.44,17.09979,78.19624
Hanuman_Kunta,A7,"78°11'45.160""E","17°6'0.200""N",48.76,17.10006,78.19588
Hanuman_Kunta,A8,"78°11'43.952""E","17°6'1.220""N",47.55,17.10034,78.19554
Hanuman_Kunta,A9,"78°11'41.691""E","17°6'1.860""N",69.75,17.10052,78.19491
Hanuman_Kunta,A10,"78°11'40.082""E","17°6'2.758""N",55.02,17.10077,78.19447
Hanuman_Kunta,A11,"78°11'37.983""E","17°6'1.470""N",73.66,17.10041,78.19388
Hanuman_Kunta,A12,"78°11'37.501""E","17°6'0.209""N",41.24,17.10006,78.19375
Hanuman_Kunta,A13,"78°11'37.136""E","17°5'58.389""N",57.06,17.09955,78.19365
Hanuman_Kunta,A14,"78°11'38.231""E","17°5'54.585""N",121.44,17.0985,78.19395
Hanuman_Kunta,A15,"78°11'39.049""E","17°5'51.922""N",85.41,17.09776,78.19418
Hanuman_Kunta,A16,"78°11'40.296""E","17°5'39.591""N",75.42,17.09433,78.19453
Hanuman_Kunta,A17,"78°11'40.771""E","17°5'48.466""N",42.67,17.0968,78.19466
Hanuman_Kunta,A18,"78°11'40.084""E","17°5'47.225""N",40.02,17.09645,78.19447
Hanuman_Kunta,A19,"78°11'40.542""E","17°5'46.406""N",25.71,17.09622,78.1946
Hanuman_Kunta,A20,"78°11'42.474""E","17°5'46.004""N",58.48,17.09611,78.19513
Pedda_Arla_Kunta,A1,"78°10'53.748""E","17°6'41.908""N",0.0,17.11164,78.1816
Pedda_Arla_Kunta,A2,"78°10'53.821""E","17°6'42.483""N",17.81,17.1118,78.18162
Pedda_Arla_Kunta,A3,"78°10'53.762""E","17°6'42.833""N",10.91,17.1119,78.1816
Pedda_Arla_Kunta,A4,"78°10'53.622""E","17°6'43.122""N",9.8,17.11198,78.18156
Pedda_Arla_Kunta,A5,"78°10'53.783""E","17°6'43.450""N",11.17,17.11207,78.18161
Pedda_Arla_Kunta,A6,"78°10'54.195""E","17°6'43.466""N",12.0,17.11207,78.18172
Pedda_Arla_Kunta,A7,"78°10'55.043""E","17°6'43.561""N",25.25,17.1121,78.18196
Pedda_Arla_Kunta,A8,"78°10'55.455""E","17°6'43.795""N",14.16,17.11217,78.18207
Pedda_Arla_Kunta,A9,"78°10'55.952""E","17°6'43.833""N",21.34,17.11218,78.18221
Pedda_Arla_Kunta,A10,"78°10'56.985""E","17°6'44.082""N",25.34,17.11225,78.1825
Pedda_Arla_Kunta,A11,"78°10'57.535""E","17°6'44.376""N",16.03,17.11233,78.18265
Pedda_Arla_Kunta,A12,"78°10'57.936""E","17°6'43.975""N",18.04,17.11222,78.18276
Pedda_Arla_Kunta,A13,"78°10'57.936""E","17°6'43.419""N",17.0,17.11206,78.18276
Pedda_Arla_Kunta,A14,"78°10'57.719""E","17°6'42.952""N",15.76,17.11193,78.1827
Pedda_Arla_Kunta,A15,"78°10'57.564""E","17°6'42.604""N",10.82,17.11183,78.18266
Moddu_Kunta,A1,"17°6'0.86""N","78°12'24.772""E",0.0,17.10024,78.20688
Moddu_Kunta,A2,"17°6'1.274""N","78°12'24.217""E",20.791,17.10035,78.20673
Moddu_Kunta,A3,"17°6'1.742""N","78°12'23.688""E",21.274,17.10048,78.20658
Moddu_Kunta,A4,"17°6'2.099""N","78°12'24.466""E",25.49,17.10058,78.2068
Moddu_Kunta,A5,"17°6'2.48""N","78°12'25.196""E",24.715,17.10069,78.207
Moddu_Kunta,A6,"17°6'3.161""N","78°12'25.711""E",25.702,17.10088,78.20714
Moddu_Kunta,A7,"17°6'2.405""N","78°12'26.636""E",35.925,17.10067,78.2074
Moddu_Kunta,A8,"17°6'3.156""N","78°12'27.382""E",22.485,17.10088,78.20761
Moddu_Kunta,A9,"17°6'3.636""N","78°12'27.936""E",26.777,17.10101,78.20776
Moddu_Kunta,A10,"17°6'3.167""N","78°12'28.141""E",13.707,17.10088,78.20782
Moddu_Kunta,A11,"17°6'3.625""N","78°12'29.29""E",38.73,17.10101,78.20814
Moddu_Kunta,A12,"17°6'3.37""N","78°12'30.233""E",16.524,17.10094,78.2084
Moddu_Kunta,A13,"17°6'2.844""N","78°12'30.284""E",20.384,17.10079,78.20841
Moddu_Kunta,A14,"17°6'2.628""N","78°12'30.017""E",8.654,17.10073,78.20834
Thunga_Kunta,A1,"17°5'58.344""N","78°13'34.05""E",0.0,17.09954,78.22612
Thunga_Kunta,A2,"17°5'58.241""N","78°13'34.104""E",3.54,17.09951,78.22614
Thunga_Kunta,A3,"17°5'58.122""N","78°13'34.136""E",3.76,17.09948,78.22615
Thunga_Kunta,A4,"17°5'57.35""N","78°13'34.36""E",24.68,17.09926,78.22621
Thunga_Kunta,A5,"17°5'56.959""N","78°13'34.973""E",21.77,17.09916,78.22638
Thunga_Kunta,A6,"17°5'56.329""N","78°13'35.385""E",22.88,17.09898,78.2265
Thunga_Kunta,A7,"17°5'55.551""N","78°13'35.637""E",25.06,17.09876,78.22657
Thunga_Kunta,A8,"17°5'54.904""N","78°13'35.927""E",21.68,17.09858,78.22665
Thunga_Kunta,A9,"17°5'54.375""N","78°13'36.03""E",16.56,17.09844,78.22668
Thunga_Kunta,A10,"17°5'52.905""N","78°13'35.686""E",46.35,17.09803,78.22658
Thunga_Kunta,A11,"17°5'51.756""N","78°13'35.738""E",35.36,17.09771,78.22659
Thunga_Kunta,A12,"17°5'50.553""N","78°13'35.763""E",37.03,17.09738,78.2266
Thunga_Kunta,A13,"17°5'49.613""N","78°13'36.535""E",36.85,17.09711,78.22682
Thunga_Kunta,A14,"17°5'49.29""N","78°13'36.977""E",16.43,17.09702,78.22694
Thunga_Kunta,A15,"17°5'48.996""N","78°13'37.332""E",13.86,17.09694,78.22704
Thunga_Kunta,A16,"17°5'49.589""N","78°13'37.875""E",24.3,17.09711,78.22719
Thunga_Kunta,A17,"17°5'50.271""N","78°13'38.408""E",26.24,17.0973,78.22734
Thunga_Kunta,A18,"17°5'50.629""N","78°13'38.902""E",18.28,17.0974,78.22747
Thunga_Kunta,A19,"17°5'50.661""N","78°13'39.312""E",12.17,17.09741,78.22759
Thunga_Kunta,A20,"17°5'51.194""N","78°13'39.775""E",21.37,17.09755,78.22772
Thunga_Kunta,A21,"17°5'51.835""N","78°13'40.666""E",32.92,17.09773,78.22796
Thunga_Kunta,A22,"17°5'52.29""N","78°13'41.167""E",20.37,17.09786,78.2281
Thunga_Kunta,A23,"17°5'52.61""N","78°13'40.728""E",16.3,17.09795,78.22798
Thunga_Kunta,A24,"17°5'53.35""N","78°13'40.151""E",28.47,17.09815,78.22782
Thunga_Kunta,A25,"17°5'54.084""N","78°13'40.377""E",23.55,17.09836,78.22788
Thunga_Kunta,A26,"17°5'55.709""N","78°13'40.696""E",50.88,17.09881,78.22797
Thunga_Kunta,A27,"17°5'56.749""N","78°13'41.175""E",34.97,17.0991,78.2281
Thunga_Kunta,A28,"17°5'57.595""N","78°13'41.551""E",28.32,17.09933,78.22821
Thunga_Kunta,A29,"17°5'58.044""N","78°13'41.782""E",15.4,17.09946,78.22827
Thunga_Kunta,A30,"17°5'58.304""N","78°13'41.934""E",11.04,17.09953,78.22831
Thunga_Kunta,A31,"17°5'58.826""N","78°13'42.695""E",24.79,17.09967,78.22853
Thunga_Kunta,A32,"17°5'59.276""N","78°13'42.484""E",15.18,17.0998,78.22847
Thunga_Kunta,A33,"17°5'59.473""N","78°13'42.631""E",7.45,17.09985,78.22851
Kakarathumu_Kunta,A1,"78°15'56.919""E","17°2'27.818""N",0.0,17.04106,78.26581
Kakarathumu_Kunta,A2,"78°15'56.987""E","17°2'26.916""N",27.84,17.04081,78.26583
Kakarathumu_Kunta,A3,"78°15'57.939""E","17°2'26.549""N",30.35,17.04071,78.26609
Kakarathumu_Kunta,A4,"78°15'59.216""E","17°2'26.141""N",39.81,17.04059,78.26645
Kakarathumu_Kunta,A5,"78°16'1.194""E","17°2'26.701""N",59.95,17.04075,78.267
Kakarathumu_Kunta,A6,"78°16'2.312""E","17°2'25.633""N",33.2,17.04045,78.26731
Kakarathumu_Kunta,A7,"78°16'3.850""E","17°2'25.562""N",45.56,17.04043,78.26774
Kakarathumu_Kunta,A8,"78°16'7.069""E","17°2'25.325""N",95.65,17.04037,78.26863
Kakarathumu_Kunta,A9,"78°16'8.002""E","17°2'25.111""N",28.38,17.04031,78.26889
Kakarathumu_Kunta,A10,"78°16'8.642""E","17°2'25.424""N",21.22,17.0404,78.26907
Kakarathumu_Kunta,A11,"78°16'9.139""E","17°2'25.858""N",19.87,17.04052,78.26921
Pinnamma_Kunta,A1,"17°2'10.641""N","78°16'39.424""E",0.0,17.03629,78.27762
Pinnamma_Kunta,A2,"17°2'10.373""N","78°16'37.228""E",65.5,17.03621,78.27701
Pinnamma_Kunta,A3,"17°2'10.076""N","78°16'37.077""E",10.11,17.03613,78.27697
Pinnamma_Kunta,A4,"17°2'9.578""N","78°16'37.638""E",22.6,17.03599,78.27712
Pinnamma_Kunta,A5,"17°2'8.869""N","78°16'39.861""E",69.31,17.0358,78.27774
Pinnamma_Kunta,A6,"17°2'9.963""N","78°16'44.222""E",133.34,17.0361,78.27895
Pinnamma_Kunta,A7,"17°2'10.790""N","78°16'48.481""E",128.58,17.03633,78.28013
Pinnamma_Kunta,A8,"17°2'10.979""N","78°16'48.678""E",8.23,17.03638,78.28019
Pinnamma_Kunta,A9,"17°2'11.613""N","78°16'51.240""E",78.31,17.03656,78.2809
Pinnamma_Kunta,A10,"17°2'12.135""N","78°16'52.016""E",28.01,17.0367,78.28112
Pinnamma_Kunta,A11,"17°2'12.809""N","78°16'52.358""E",23.07,17.03689,78.28121
Pinnamma_Kunta,A12,"17°2'13.383""N","78°16'52.520""E",18.31,17.03705,78.28126
Pinnamma_Kunta,A13,"17°2'13.952""N","78°16'52.591""E",16.75,17.03721,78.28128
Pinnamma_Kunta,A14,"17°2'14.092""N","78°16'52.691""E",7.12,17.03725,78.2813
Pinnamma_Kunta,A15,"17°2'14.251""N","78°16'52.762""E",4.33,17.03729,78.28132
Pinnamma_Kunta,A16,"17°2'14.681""N","78°16'52.897""E",14.88,17.03741,78.28136
Pinnamma_Kunta,A17,"17°2'15.099""N","78°16'53.035""E",11.63,17.03753,78.2814
Pinnamma_Kunta,A18,"17°2'15.500""N","78°16'53.354""E",11.18,17.03764,78.28149
Pinnamma_Kunta,A19,"17°2'16.466""N","78°16'53.745""E",33.14,17.03791,78.2816
Pinnamma_Kunta,A20,"17°2'17.406""N","78°16'53.972""E",29.71,17.03817,78.28166
Pinnamma_Kunta,A21,"17°2'18.346""N","78°16'54.123""E",29.25,17.03843,78.2817
Pinnamma_Kunta,A22,"17°2'18.503""N","78°16'53.595""E",12.15,17.03847,78.28155
Pinnamma_Kunta,A23,"17°2'18.545""N","78°16'53.596""E",4.68,17.03848,78.28155
Pinnamma_Kunta,A24,"17°2'18.375""N","78°16'53.282""E",10.66,17.03844,78.28147
Pinnamma_Kunta,A25,"17°2'18.231""N","78°16'52.853""E",13.64,17.0384,78.28135
Pinnamma_Kunta,A26,"17°2'17.894""N","78°16'52.002""E",27.01,17.0383,78.28111
Kotha_Kunta,A1,"17°2'47.568""N","78°17'29.078""E",0.0,17.04655,78.29141
Kotha_Kunta,A2,"17°2'47.845""N","78°17'30.579""E",45.22,17.04662,78.29183
Kotha_Kunta,A3,"17°2'48.212""N","78°17'31.501""E",29.52,17.04673,78.29208
Kotha_Kunta,A4,"17°2'48.504""N","78°17'32.314""E",25.69,17.04681,78.29231
Kotha_Kunta,A5,"17°2'49.078""N","78°17'33.822""E",47.98,17.04697,78.29273
Kotha_Kunta,A6,"17°2'49.515""N","78°17'36.130""E",69.62,17.04709,78.29337
Kotha_Kunta,A7,"17°2'49.802""N","78°17'37.015""E",27.61,17.04717,78.29362
Kotha_Kunta,A8,"17°2'49.742""N","78°17'37.330""E",9.5,17.04715,78.2937
Kotha_Kunta,A9,"17°2'50.238""N","78°17'37.873""E",22.18,17.04729,78.29385
Kotha_Kunta,A10,"17°2'50.730""N","78°17'38.607""E",26.47,17.04742,78.29406
Kotha_Kunta,A11,"17°2'48.078""N","78°17'39.374""E",84.66,17.04669,78.29427
Kotha_Kunta,A12,"17°2'47.969""N","78°17'39.396""E",9.85,17.04666,78.29428
Kotha_Kunta,A13,"17°2'47.065""N","78°17'39.003""E",27.85,17.04641,78.29417
Kotha_Kunta,A14,"17°2'47.051""N","78°17'38.761""E",7.17,17.0464,78.2941
Kotha_Kunta,A15,"17°2'47.020""N","78°17'38.263""E",14.78,17.04639,78.29396
Kotha_Kunta,A16,"17°2'47.003""N","78°17'38.236""E",0.95,17.04639,78.29395
Kotha_Kunta,A17,"17°2'46.178""N","78°17'37.576""E",32.0,17.04616,78.29377
Kotha_Kunta,A18,"17°2'45.460""N","78°17'37.433""E",22.5,17.04596,78.29373
Kotha_Kunta,A19,"17°2'44.675""N","78°17'37.340""E",24.32,17.04574,78.29371
Kotha_Kunta,A20,"17°2'44.194""N","78°17'37.267""E",14.94,17.04561,78.29369
Kotha_Kunta,A21,"17°2'44.171""N","78°17'36.608""E",19.51,17.0456,78.2935
Kotha_Kunta,A22,"17°2'43.593""N","78°17'36.676""E",17.88,17.04544,78.29352
Kotha_Kunta,A23,"17°2'39.941""N","78°17'36.981""E",112.54,17.04443,78.29361
Kotha_Kunta,A24,"17°2'36.808""N","78°17'34.406""E",121.38,17.04356,78.29289
Kotha_Kunta,A25,"17°2'37.218""N","78°17'33.287""E",35.45,17.04367,78.29258
Kotha_Kunta,A26,"17°2'38.746""N","78°17'33.340""E",47.03,17.0441,78.29259
Yatham_Kunta,A1,"17°3'29.987""N","78°17'28.676""E",0.0,17.05833,78.2913
Yatham_Kunta,A2,"17°3'29.427""N","78°17'30.214""E",48.651,17.05817,78.29173
Yatham_Kunta,A3,"17°3'29.475""N","78°17'30.265""E",2.106,17.05819,78.29174
Yatham_Kunta,A4,"17°3'30.423""N","78°17'30.409""E",29.499,17.05845,78.29178
Yatham_Kunta,A5,"17°3'31.619""N","78°17'30.440""E",36.78,17.05878,78.29179
Yatham_Kunta,A6,"17°3'31.690""N","78°17'30.860""E",12.616,17.0588,78.29191
Yatham_Kunta,A7,"17°3'32.785""N","78°17'31.151""E",34.767,17.05911,78.29199
Yatham_Kunta,A8,"17°3'32.808""N","78°17'31.490""E",10.045,17.05911,78.29208
Yatham_Kunta,A9,"17°3'32.846""N","78°17'32.181""E",20.499,17.05912,78.29227
Yatham_Kunta,A10,"17°3'33.807""N","78°17'32.341""E",29.946,17.05939,78.29232
Yatham_Kunta,A11,"17°3'34.855""N","78°17'32.788""E",34.854,17.05968,78.29244
Yatham_Kunta,A12,"17°3'35.317""N","78°17'32.963""E",15.104,17.05981,78.29249
Yatham_Kunta,A13,"17°3'35.390""N","78°17'32.772""E",6.083,17.05983,78.29244
Yatham_Kunta,A14,"17°3'36.380""N","78°17'33.179""E",32.734,17.06011,78.29255
Yatham_Kunta,A15,"17°3'36.672""N","78°17'33.184""E",8.971,17.06019,78.29255
Yatham_Kunta,A16,"17°3'36.707""N","78°17'32.513""E",19.877,17.0602,78.29236
Yatham_Kunta,A17,"17°3'36.573""N","78°17'31.270""E",37.032,17.06016,78.29202
Yatham_Kunta,A18,"17°3'36.424""N","78°17'30.135""E",33.876,17.06012,78.2917
Yatham_Kunta,A19,"17°3'36.434""N","78°17'29.554""E",17.189,17.06012,78.29154
Yatham_Kunta,A20,"17°3'36.424""N","78°17'28.588""E",28.598,17.06012,78.29127
Yatham_Kunta,A21,"17°3'36.225""N","78°17'27.339""E",37.563,17.06006,78.29093
Yatham_Kunta,A22,"17°3'36.155""N","78°17'26.896""E",16.114,17.06004,78.2908
Yatham_Kunta,A23,"17°3'35.827""N","78°17'26.319""E",17.4,17.05995,78.29064
Yatham_Kunta,A24,"17°3'34.959""N","78°17'25.657""E",33.117,17.05971,78.29046
Yatham_Kunta,A25,"17°3'34.572""N","78°17'25.312""E",15.691,17.0596,78.29036
Yatham_Kunta,A26,"17°3'34.630""N","78°17'24.869""E",13.231,17.05962,78.29024
Yatham_Kunta,A27,"17°3'34.107""N","78°17'24.432""E",20.619,17.05947,78.29012
Yatham_Kunta,A28,"17°3'33.276""N","78°17'24.273""E",25.996,17.05924,78.29008
Yatham_Kunta,A29,"17°3'32.925""N","78°17'24.235""E",10.857,17.05915,78.29007
Yatham_Kunta,A30,"17°3'32.938""N","78°17'23.903""E",9.813,17.05915,78.28997
Thette_Kunta,A1,"17°9'5.954""N","78°10'51.762""E",0.0,17.15165,78.18104
Thette_Kunta,A2,"17°9'5.886""N","78°10'51.719""E",2.499,17.15164,78.18103
Thette_Kunta,A3,"17°9'6.005""N","78°10'50.869""E",25.415,17.15167,78.1808
Thette_Kunta,A4,"17°9'6.21""N","78°10'50.599""E",10.08,17.15172,78.18072
Thette_Kunta,A5,"17°9'6.545""N","78°10'50.567""E",10.386,17.15182,78.18071
Thette_Kunta,A6,"17°9'6.739""N","78°10'50.527""E",6.109,17.15187,78.1807
Thette_Kunta,A7,"17°9'6.102""N","78°10'50.462""E",10.152,17.1517,78.18068
Thette_Kunta,A8,"17°9'7.247""N","78°10'50.419""E",5.791,17.15201,78.18067
Thette_Kunta,A9,"17°9'8.226""N","78°10'49.571""E",28.296,17.15228,78.18044
Thette_Kunta,A10,"17°9'8.698""N","78°10'49.569""E",25.97,17.15242,78.18044
Thette_Kunta,A11,"17°9'9.462""N","78°10'49.462""E",6.237,17.15263,78.18041
Thette_Kunta,A12,"17°9'9.14""N","78°10'49.472""E",7.633,17.15254,78.18041
Thette_Kunta,A13,"17°9'9.533""N","78°10'49.462""E",17.016,17.15265,78.18041
Thette_Kunta,A14,"17°9'9.914""N","78°10'49.418""E",12.007,17.15275,78.18039
Thette_Kunta,A15,"17°9'10.251""N","78°10'49.448""E",8.435,17.15285,78.1804
Thette_Kunta,A16,"17°9'10.616""N","78°10'49.224""E",10.985,17.15295,78.18034
Thette_Kunta,A17,"17°9'10.706""N","78°10'49.164""E",2.893,17.15297,78.18032
Thette_Kunta,A18,"17°9'11.074""N","78°10'49.458""E",13.001,17.15308,78.1804
Thette_Kunta,A19,"17°9'11.939""N","78°10'49.257""E",35.407,17.15332,78.18035
Thette_Kunta,A20,"17°9'12.133""N","78°10'51.139""E",27.707,17.15337,78.18087
Thette_Kunta,A21,"17°9'12.233""N","78°10'52.086""E",27.333,17.1534,78.18114
Thette_Kunta,A22,"17°9'12.143""N","78°10'52.896""E",24.086,17.15337,78.18136
Yennem_Kunta,A1,"17°9'58.114""N","78°11'55.241""E",0.0,17.16614,78.19868
Yennem_Kunta,A2,"17°9'57.923""N","78°11'55.01""E",9.002,17.16609,78.19861
Yennem_Kunta,A3,"17°9'59.197""N","78°11'51.526""E",110.249,17.16644,78.19765
Yennem_Kunta,A4,"17°9'59.364""N","78°11'50.662""E",35.519,17.16649,78.19741
Yennem_Kunta,A5,"17°9'0.666""N","78°11'49.024""E",52.134,17.15018,78.19695
Yennem_Kunta,A6,"17°9'1.469""N","78°11'47.018""E",64.276,17.15041,78.19639
Yennem_Kunta,A7,"17°9'2.516""N","78°11'45.496""E",55.373,17.1507,78.19597
Yennem_Kunta,A8,"17°9'2.833""N","78°11'43.501""E",59.716,17.15079,78.19542
Yennem_Kunta,A9,"17°9'3.366""N","78°11'41.924""E",49.441,17.15094,78.19498
Yennem_Kunta,A10,"17°9'3.956""N","78°11'41.05""E",31.616,17.1511,78.19474
Yennem_Kunta,A11,"17°9'3.888""N","78°11'39.926""E",33.271,17.15108,78.19442
Yennem_Kunta,A12,"17°9'5.818""N","78°11'37.435""E",94.665,17.15162,78.19373
Yennem_Kunta,A13,"17°9'5.137""N","78°11'35.362""E",119.096,17.15143,78.19316
Yennem_Kunta,A14,"17°9'1.912""N","78°11'32.82""E",113.961,17.15053,78.19245
Yennem_Kunta,A15,"17°9'4.544""N","78°11'31.97""E",84.509,17.15126,78.19221
Yennem_Kunta,A16,"17°9'5.908""N","78°11'33.565""E",63.104,17.15164,78.19266
Yennem_Kunta,A17,"17°9'8.252""N","78°11'37.835""E",145.409,17.15229,78.19384
Yennem_Kunta,A18,"17°9'7.788""N","78°11'38.681""E",82.134,17.15216,78.19408
Yennem_Kunta,A19,"17°9'7.078""N","78°11'41.852""E",96.321,17.15197,78.19496
Yennem_Kunta,A20,"17°9'5.944""N","78°11'45.013""E",99.741,17.15165,78.19584
Yennem_Kunta,A21,"17°9'4.969""N","78°11'48.091""E",95.854,17.15138,78.19669
Erra_Kunta,A1,"17°3'10.061""N","78°21'23.428""E",0.0,17.05279,78.35651
Erra_Kunta,A2,"17°3'9.889""N","78°21'23.472""E",5.45,17.05275,78.35652
Erra_Kunta,A3,"17°3'9.638""N","78°21'23.737""E",11.01,17.05268,78.35659
Erra_Kunta,A4,"17°3'9.412""N","78°21'24.296""E",17.78,17.05261,78.35675
Erra_Kunta,A5,"17°3'9.077""N","78°21'24.889""E",20.5,17.05252,78.35691
Erra_Kunta,A6,"17°3'8.592""N","78°21'25.416""E",23.95,17.05239,78.35706
Erra_Kunta,A7,"17°3'7.945""N","78°21'25.892""E",23.65,17.05221,78.35719
Erra_Kunta,A8,"17°3'7.531""N","78°21'25.945""E",12.82,17.05209,78.35721
Erra_Kunta,A9,"17°3'7.095""N","78°21'26.113""E",8.49,17.05197,78.35725
Erra_Kunta,A10,"17°3'6.762""N","78°21'26.232""E",12.78,17.05188,78.35729
Erra_Kunta,A11,"17°3'6.493""N","78°21'26.475""E",22.57,17.0518,78.35735
Erra_Kunta,A12,"17°3'6.905""N","78°21'26.892""E",18.63,17.05192,78.35747
Erra_Kunta,A13,"17°3'5.336""N","78°21'27.392""E",26.21,17.05148,78.35761
Erra_Kunta,A14,"17°3'4.966""N","78°21'28.343""E",17.57,17.05138,78.35787
Erra_Kunta,A15,"17°3'4.145""N","78°21'29.736""E",48.35,17.05115,78.35826
Erra_Kunta,A16,"17°3'3.452""N","78°21'29.978""E",22.49,17.05096,78.35833
Erra_Kunta,A17,"17°3'2.63""N","78°21'30.183""E",25.99,17.05073,78.35838
Erra_Kunta,A18,"17°3'2.414""N","78°21'30.757""E",18.48,17.05067,78.35854
Erra_Kunta,A19,"17°3'2.203""N","78°21'31.495""E",22.79,17.05061,78.35875
Erra_Kunta,A20,"17°3'2.008""N","78°21'32.265""E",23.56,17.05056,78.35896
Erra_Kunta,A21,"17°3'1.757""N","78°21'33.064""E",24.85,17.05049,78.35918
Erra_Kunta,A22,"17°3'2.004""N","78°21'33.711""E",20.62,17.05056,78.35936
Erra_Kunta,A23,"17°3'2.015""N","78°21'34.298""E",25.91,17.05056,78.35953
Erra_Kunta,A24,"17°3'2.897""N","78°21'35.021""E",26.14,17.0508,78.35973
Erra_Kunta,A25,"17°3'3.598""N","78°21'35.986""E",24.76,17.051,78.36
Erra_Kunta,A26,"17°3'3.918""N","78°21'36.996""E",16.45,17.05109,78.36028
Erra_Kunta,A27,"17°3'4.285""N","78°21'38.157""E",30.95,17.05119,78.3606
Erra_Kunta,A28,"17°3'4.372""N","78°21'38.274""E",9.67,17.05121,78.36063
Erra_Kunta,A29,"17°3'4.639""N","78°21'38.633""E",22.36,17.05129,78.36073
Erra_Kunta,A30,"17°3'6.068""N","78°21'38.02""E",24.43,17.05169,78.36056
Erra_Kunta,A31,"17°3'6.655""N","78°21'37.512""E",23.51,17.05185,78.36042
Erra_Kunta,A32,"17°3'6.995""N","78°21'36.382""E",32.02,17.05194,78.36011
Erra_Kunta,A33,"17°3'7.494""N","78°21'36.058""E",28.0,17.05208,78.36002
Erra_Kunta,A34,"17°3'7.884""N","78°21'35.672""E",25.68,17.05219,78.35991
Erra_Kunta,A35,"17°3'8.356""N","78°21'35.664""E",22.84,17.05232,78.35991
Erra_Kunta,A36,"17°3'9.723""N","78°21'35.914""E",23.63,17.0527,78.35998
Erra_Kunta,A37,"17°3'10.416""N","78°21'35.6""E",23.26,17.05289,78.35989
Bodhi_Kunta,A1,"17°9'34.618""N","78°16'54.437""E",0.0,17.15962,78.28179
Bodhi_Kunta,A2,"17°9'33.962""N","78°16'53.954""E",24.639,17.15943,78.28165
Bodhi_Kunta,A3,"17°9'33.001""N","78°16'53.67""E",30.763,17.15917,78.28158
Bodhi_Kunta,A4,"17°9'32.004""N","78°16'53.314""E",32.453,17.15889,78.28148
Bodhi_Kunta,A5,"17°9'31.234""N","78°16'52.536""E",33.051,17.15868,78.28126
Bodhi_Kunta,A6,"17°9'31.763""N","78°16'51.668""E",30.408,17.15882,78.28102
Bodhi_Kunta,A7,"17°9'32.782""N","78°16'49.955""E",59.556,17.15911,78.28054
Bodhi_Kunta,A8,"17°9'33.044""N","78°16'49.03""E",28.507,17.15918,78.28029
Bodhi_Kunta,A9,"17°9'33.92""N","78°16'48.024""E",41.432,17.15942,78.28001
Bodhi_Kunta,A10,"17°9'32.893""N","78°16'46.236""E",41.344,17.15914,78.27951
Bodhi_Kunta,A11,"17°9'33.71""N","78°16'46.29""E",25.188,17.15936,78.27953
Bodhi_Kunta,A12,"17°9'35.32""N","78°16'45.188""E",16.887,17.15981,78.27922
Bodhi_Kunta,A13,"17°9'35.978""N","78°16'44.674""E",25.034,17.15999,78.27908
Bodhi_Kunta,A14,"17°9'36.475""N","78°16'44.144""E",21.942,17.16013,78.27893
Bodhi_Kunta,A15,"17°9'38.502""N","78°16'44.393""E",62.714,17.1607,78.279
Kummari_Kunta,A1,"17°12'38.188""N","78°16'17.805""E",0.0,17.21061,78.27161
Kummari_Kunta,A2,"17°12'37.711""N","78°16'17.702""E",15.0,17.21048,78.27158
Kummari_Kunta,A3,"17°12'36.981""N","78°16'17.452""E",23.6,17.21027,78.27151
Kummari_Kunta,A4,"17°12'37.544""N","78°16'17.085""E",20.4,17.21043,78.27141
Kummari_Kunta,A5,"17°12'38.937""N","78°16'17.204""E",43.0,17.21082,78.27145
Kummari_Kunta,A6,"17°12'39.189""N","78°16'16.253""E",29.2,17.21089,78.27118
Kummari_Kunta,A7,"17°12'40.396""N","78°16'13.518""E",89.0,17.21122,78.27042
Kummari_Kunta,A8,"17°12'40.878""N","78°16'12.802""E",25.8,17.21136,78.27022
Kummari_Kunta,A9,"17°12'40.633""N","78°16'16.472""E",12.6,17.21129,78.27124
Kummari_Kunta,A10,"17°12'41.051""N","78°16'16.394""E",13.1,17.2114,78.27122
Kummari_Kunta,A11,"17°12'44.169""N","78°16'16.795""E",96.7,17.21227,78.27133
Kummari_Kunta,A12,"17°12'45.746""N","78°16'17.397""E",51.7,17.21271,78.2715
Kummari_Kunta,A13,"17°12'46.548""N","78°16'17.294""E",29.2,17.21293,78.27147
Kummari_Kunta,A14,"17°12'47.310""N","78°16'17.050""E",24.5,17.21314,78.2714
Kummari_Kunta,A15,"17°12'46.801""N","78°16'19.046""E",61.1,17.213,78.27196
Kummari_Kunta,A16,"17°12'46.789""N","78°16'20.017""E",28.7,17.213,78.27223
Chinna_Komati_Kunta,A1,"17°11'1.783""N","78°14'34.11""E",0.0,17.18383,78.24281
Chinna_Komati_Kunta,A2,"17°11'2.394""N","78°14'34.456""E",21.4,17.184,78.2429
Chinna_Komati_Kunta,A3,"17°11'2.759""N","78°14'34.515""E",11.42,17.1841,78.24292
Chinna_Komati_Kunta,A4,"17°11'3.024""N","78°14'35.139""E",20.19,17.18417,78.24309
Chinna_Komati_Kunta,A5,"17°11'3.675""N","78°14'35.243""E",21.43,17.18435,78.24312
Chinna_Komati_Kunta,A6,"17°11'3.675""N","78°14'35.45""E",6.84,17.18435,78.24318
Chinna_Komati_Kunta,A7,"17°11'4.165""N","78°14'35.426""E",8.11,17.18449,78.24317
Chinna_Komati_Kunta,A8,"17°11'4.545""N","78°14'35.801""E",13.49,17.1846,78.24328
Chinna_Komati_Kunta,A9,"17°11'4.345""N","78°14'36.618""E",15.04,17.18454,78.2435
Chinna_Komati_Kunta,A10,"17°11'4.124""N","78°14'36.534""E",12.2,17.18448,78.24348
Chinna_Komati_Kunta,A11,"17°11'3.583""N","78°14'36.381""E",12.03,17.18433,78.24344
Chinna_Komati_Kunta,A12,"17°11'3.12""N","78°14'37.162""E",15.84,17.1842,78.24366
Chinna_Komati_Kunta,A13,"17°11'5.83""N","78°14'37.15""E",15.24,17.18495,78.24365
Chinna_Komati_Kunta,A14,"17°11'6.753""N","78°14'38.342""E",26.81,17.18521,78.24398
Chinna_Komati_Kunta,A15,"17°11'7.99""N","78°14'39.03""E",29.74,17.18555,78.24418
Chinna_Komati_Kunta,A16,"17°11'8.672""N","78°14'39.86""E",24.74,17.18574,78.24441
Chinna_Komati_Kunta,A17,"17°11'8.079""N","78°14'39.888""E",18.73,17.18558,78.24441
Chinna_Komati_Kunta,A18,"17°11'8.438""N","78°14'40.598""E",21.52,17.18568,78.24461
Chinna_Komati_Kunta,A19,"17°11'8.754""N","78°14'40.753""E",11.92,17.18576,78.24465
Chinna_Komati_Kunta,A20,"17°11'7.458""N","78°14'40.63""E",22.65,17.1854,78.24462
Chinna_Komati_Kunta,A21,"17°11'7.362""N","78°14'41.062""E",22.8,17.18538,78.24474
Chinna_Komati_Kunta,A22,"17°11'7.867""N","78°14'42.606""E",44.05,17.18552,78.24517
Chinna_Komati_Kunta,A23,"17°11'8.017""N","78°14'42.892""E",26.85,17.18556,78.24525
Chinna_Komati_Kunta,A24,"17°11'7.862""N","78°14'42.606""E",22.55,17.18552,78.24517
Chinna_Komati_Kunta,A25,"17°11'6.734""N","78°14'42.606""E",19.55,17.1852,78.24517
Chinna_Komati_Kunta,A26,"17°11'6.36""N","78°14'42.606""E",19.55,17.1851,78.24517
Chinna_Komati_Kunta,A27,"17°11'6.066""N","78°14'42.606""E",18.55,17.18502,78.24517
Chinna_Komati_Kunta,A28,"17°11'5.97""N","78°14'42.829""E",16.5,17.18499,78.24523
Chinna_Komati_Kunta,A29,"17°11'4.353""N","78°14'43.233""E",10.44,17.18454,78.24534
Sunarkunta,A1,"17°11'15.972""N","78°13'24.982""E",0.0,17.18777,78.22361
Sunarkunta,A2,"17°11'15.108""N","78°13'24.535""E",29.655,17.18753,78.22348
Sunarkunta,A3,"17°11'14.669""N","78°13'24.118""E",18.345,17.18741,78.22337
Sunarkunta,A4,"17°11'14.226""N","78°13'23.992""E",14.082,17.18728,78.22333
Sunarkunta,A5,"17°11'13.934""N","78°13'23.693""E",12.577,17.1872,78.22325
Sunarkunta,A6,"17°11'13.301""N","78°13'23.542""E",19.996,17.18703,78.22321
Sunarkunta,A7,"17°11'12.858""N","78°13'23.819""E",15.336,17.1869,78.22328
Sunarkunta,A8,"17°11'12.858""N","78°13'25.1""E",37.886,17.1869,78.22364
Sunarkunta,A9,"17°11'13.02""N","78°13'26.562""E",43.477,17.18695,78.22404
Sunarkunta,A10,"17°11'13.844""N","78°13'26.987""E",28.278,17.18718,78.22416
Sunarkunta,A11,"17°11'14.255""N","78°13'27.113""E",13.138,17.18729,78.2242
Muthyal_Reddy_Kunta,A1,"17°9'24.336""N","78°13'32.239""E",0.0,17.15676,78.22562
Muthyal_Reddy_Kunta,A2,"17°9'24.35""N","78°13'31.519""E",21.336,17.15676,78.22542
Muthyal_Reddy_Kunta,A3,"17°9'25.355""N","78°13'30.839""E",36.804,17.15704,78.22523
Muthyal_Reddy_Kunta,A4,"17°9'25.848""N","78°13'30.126""E",26.908,17.15718,78.22504
Muthyal_Reddy_Kunta,A5,"17°9'26.856""N","78°13'29.698""E",33.601,17.15746,78.22492
Muthyal_Reddy_Kunta,A6,"17°9'28.174""N","78°13'29.194""E",43.169,17.15783,78.22478
Muthyal_Reddy_Kunta,A7,"17°9'29.032""N","78°13'29.041""E",26.926,17.15806,78.22473
Muthyal_Reddy_Kunta,A8,"17°9'30.046""N","78°13'28.56""E",31.937,17.15835,78.2246
Muthyal_Reddy_Kunta,A9,"17°9'30.884""N","78°13'28.92""E",27.926,17.15858,78.2247
Muthyal_Reddy_Kunta,A10,"17°9'31.079""N","78°13'31.282""E",70.108,17.15863,78.22536
Muthyal_Reddy_Kunta,A11,"17°9'30.857""N","78°13'32.372""E",31.732,17.15857,78.22566
Muthyal_Reddy_Kunta,A12,"17°9'30.488""N","78°13'33.276""E",27.534,17.15847,78.22591
Muthyal_Reddy_Kunta,A13,"17°9'30.276""N","78°13'33.553""E",10.525,17.15841,78.22599
Muthyal_Reddy_Kunta,A14,"17°9'30.018""N","78°13'34.003""E",15.494,17.15834,78.22611
Muthyal_Reddy_Kunta,A15,"17°9'30.071""N","78°13'37.535""E",104.526,17.15835,78.22709
